# From MPC 75007
C/1995 O1 (Hale-Bopp),e,89.3498,282.5655,130.8829,184.6968,0.0003927,0.99491305,0.0000,03/29.3093/1997,2000,g -2.0,4.0
# From NK 1615
P/1996 R2 (Lagerkvist),e,2.6015,40.0577,333.2024,3.773494,0.1344586,0.31254430,236.9956,08/11.0/2016,2000,g 11.5,4.0
# From MPC 30063
P/1997 B1 (Kobayashi),e,12.3727,329.0160,183.3660,8.557286,0.0393731,0.76112130,279.1413,08/11.0/2016,2000,g 15.0,2.0
# From MPC 75703
P/1998 VS24 (LINEAR),e,5.0230,159.0568,245.0504,4.533246,0.1021151,0.24165243,306.2100,08/11.0/2016,2000,g 13.0,2.0
# From NK 1780
P/1999 D1 (Hermann),e,21.3546,348.7472,174.0823,5.756385,0.0713640,0.71405222,95.0022,08/11.0/2016,2000,g 15.0,4.0
# From CCO 17
P/1999 R1 (SOHO),e,12.5612,359.6542,48.9513,2.516000,0.2469665,0.97874593,0.0000,09/04.0284/2015,2000,g 27.0,6.0
# From NK 731
P/1999 RO28 (LONEOS),e,8.1832,148.1532,219.8877,3.494581,0.1508730,0.65881768,200.6441,08/11.0/2016,2000,g 20.0,2.0
# From MPC 75704
P/1999 XN120 (Catalina),e,5.0278,285.3030,162.0129,4.184048,0.1151620,0.21195575,324.8258,08/11.0/2016,2000,g 13.5,2.0
# From MPEC 2016-P77
P/2000 O3 (SOHO),e,13.0183,44.3346,57.1154,3.043695,0.1856104,0.98251109,0.0000,07/01.6298/2016,2000,g  9.0,4.0
# From NK 744
P/2000 R2 (LINEAR),e,11.8192,160.6754,176.5781,3.447715,0.1539597,0.53898529,200.5357,08/11.0/2016,2000,g 18.0,4.0
# From MPC 75704
P/2000 S1 (Skiff),e,21.0182,28.1597,309.0943,6.622790,0.0578286,0.61706960,341.6483,08/11.0/2016,2000,g 10.0,4.0
# From MPC 73461
P/2000 S4 (LINEAR-Spacewatch),e,28.4588,174.1058,172.5049,7.130503,0.0517635,0.67991471,300.8187,08/11.0/2016,2000,g 17.5,2.0
# From MPC 75704
P/2001 BB50 (LINEAR-NEAT),e,10.3673,351.1792,193.5562,5.731204,0.0718349,0.58752193,50.7959,08/11.0/2016,2000,g 13.0,4.0
# From MPC 43019
P/2001 H5 (NEAT),e,8.3813,328.6913,224.7433,6.091049,0.0655641,0.60009002,19.2907,08/11.0/2016,2000,g 12.0,4.0
# From MPC 75704
P/2001 Q6 (NEAT),e,56.8556,22.0039,43.1576,7.926961,0.0441615,0.82323622,238.0948,08/11.0/2016,2000,g 13.5,4.0
# From MPC 82311
P/2001 R6 (LINEAR-Skiff),e,17.3783,67.3359,308.4731,4.178616,0.1153866,0.47536154,269.4823,08/11.0/2016,2000,g 13.0,4.0
# From MPC 75704
P/2001 T3 (NEAT),e,19.3980,55.1767,356.8357,6.440418,0.0603022,0.61432654,319.6693,08/11.0/2016,2000,g 12.0,4.0
# From MPC 47727
P/2002 EJ57 (LINEAR),e,4.9769,330.4596,166.9468,6.472322,0.0598569,0.59402249,319.5184,08/11.0/2016,2000,g 12.5,4.0
# From MPC 82311
P/2002 T5 (LINEAR),e,30.8908,123.1221,327.0618,6.982025,0.0534235,0.43774347,255.6239,08/11.0/2016,2000,g  8.0,4.0
# From MPC 75704
P/2002 T6 (NEAT-LINEAR),e,10.9942,208.7241,217.8122,7.636563,0.0467043,0.55852421,223.8726,08/11.0/2016,2000,g 10.5,4.0
# From MPC 75007
C/2002 VQ94 (LINEAR),e,70.4482,34.9007,100.1039,194.0163,0.0003647,0.96495054,1.3999,08/11.0/2016,2000,g  9.5,2.0
# From MPC 50354
P/2003 F2 (NEAT),e,11.6047,359.1321,191.6044,6.502696,0.0594380,0.54259232,289.4305,08/11.0/2016,2000,g 16.5,2.0
# From MPC 75704
P/2003 L1 (Scotti),e,9.0200,226.0537,354.5119,6.726285,0.0564990,0.25273038,279.4053,08/11.0/2016,2000,g  8.5,4.0
# From MPC 50139
P/2003 QX29 (NEAT),e,11.3818,264.5317,37.1918,8.055737,0.0431068,0.47018159,218.2739,08/11.0/2016,2000,g  8.5,4.0
# From MPC 75705
P/2003 SQ215 (NEAT-LONEOS),e,5.5820,257.2413,137.5465,5.480118,0.0768279,0.58391563,346.5685,08/11.0/2016,2000,g 14.0,2.0
# From MPC 99268
P/2003 T12 (SOHO),e,11.4581,176.4014,217.7433,2.570710,0.2391247,0.77546362,36.9448,08/11.0/2016,2000,g 17.0,4.0
# From MPC 75705
P/2003 U3 (NEAT),e,7.0039,348.0209,356.9383,5.061378,0.0865568,0.50861509,57.6355,08/11.0/2016,2000,g 13.5,4.0
# From MPC 82312
P/2004 A1 (LONEOS),e,10.5673,124.9325,21.6763,7.930433,0.0441325,0.31242180,191.8890,08/11.0/2016,2000,g  6.5,4.0
# From MPC 54558
P/2004 DO29 (Spacewatch-LINEAR),e,14.5401,147.5223,40.5714,7.281984,0.0501568,0.44274498,217.0672,08/11.0/2016,2000,g 13.5,2.0
# From MPC 54823
P/2004 FY140 (LINEAR),e,2.1369,326.7748,242.0789,4.892570,0.0910748,0.17022128,34.8259,08/11.0/2016,2000,g 12.5,2.0
# From MPC 53304
P/2004 R3 (LINEAR-NEAT),e,12.8880,306.6319,41.2468,4.709409,0.0964394,0.26636874,177.9165,08/11.0/2016,2000,g 14.5,4.0
# From CCO 17
P/2004 T1 (LINEAR-NEAT),e,11.0332,51.4633,336.3667,3.475508,0.1521166,0.50633502,294.8456,08/11.0/2016,2000,g 12.5,4.0
# From MPC 55521
P/2004 V3 (Siding Spring),e,50.3622,356.0994,322.3336,7.146275,0.0515923,0.44459911,222.4881,08/11.0/2016,2000,g 11.5,4.0
# From MPC 75705
P/2004 V5 (LINEAR-Hill),e,19.3529,47.7393,88.0564,7.951948,0.0439535,0.44651950,183.3732,08/11.0/2016,2000,g  8.0,4.0
# From MPC 75705
P/2004 WR9 (LINEAR),e,4.9312,24.8752,72.1491,6.136860,0.0648313,0.68315151,273.8196,08/11.0/2016,2000,g 14.5,4.0
# From MPC 54164
P/2005 E1 (Tubbiolo),e,4.2699,335.7095,194.0752,7.032201,0.0528527,0.37683943,222.4783,08/11.0/2016,2000,g 10.0,4.0
# From MPC 54823
P/2005 GF8 (LONEOS),e,1.1910,314.9225,285.2861,5.857309,0.0695275,0.51587579,280.3231,08/11.0/2016,2000,g 11.5,4.0
# From MPC 75290
P/2005 JN (Spacewatch),e,8.8563,70.7673,153.4093,3.497713,0.1506704,0.34863814,252.8639,08/11.0/2016,2000,g 14.0,4.0
# From MPC 79019
P/2005 J1 (McNaught),e,31.7568,268.7920,338.9116,3.569016,0.1461778,0.56994934,244.0683,08/11.0/2016,2000,g 16.5,4.0
# From MPC 75705
P/2005 JD108 (Catalina-NEAT),e,3.2768,223.9143,90.4718,6.483965,0.0596957,0.37449429,241.9167,08/11.0/2016,2000,g 10.0,4.0
# From MPC 74246
P/2005 L1 (McNaught),e,7.7322,138.2568,149.4859,3.982644,0.1240072,0.20769168,122.9598,08/11.0/2016,2000,g  9.5,4.0
# From MPC 87062
C/2005 L3 (McNaught),e,139.4490,288.8153,47.0444,2419,0.0000083,0.99768899,0.0000,01/11.1186/2008,2000,g  4.0,4.0
# From MPC 75706
P/2005 R1 (NEAT),e,15.4844,257.9800,118.8159,5.519336,0.0760105,0.62530790,301.8884,08/11.0/2016,2000,g 14.0,4.0
# From MPC 75706
P/2005 S2 (Skiff),e,3.1365,161.2000,230.5338,8.018867,0.0434045,0.19576783,160.6982,08/11.0/2016,2000,g  7.5,4.0
# From MPC 75706
P/2005 S3 (Read),e,3.4891,273.1852,140.6072,4.879859,0.0914309,0.42198192,352.4325,08/11.0/2016,2000,g 12.0,4.0
# From MPC 75706
P/2005 SB216 (LONEOS),e,24.0532,1.3963,83.6069,7.110874,0.0519780,0.46371716,180.3859,08/11.0/2016,2000,g 12.0,2.0
# From MPC 55717
P/2005 T2 (Christensen),e,8.2948,260.2825,59.1986,3.836732,0.1311481,0.41814948,184.5989,08/11.0/2016,2000,g 14.5,4.0
# From MPC 73461
P/2005 T3 (Read),e,6.2467,27.9597,8.9854,7.558979,0.0474252,0.17088199,183.5968,08/11.0/2016,2000,g  9.0,4.0
# From MPC 73461
P/2005 T4 (SWAN),e,160.0711,25.3859,41.3075,9.356246,0.0344391,0.93154004,136.3986,08/11.0/2016,2000,g 15.0,4.0
# From MPC 75706
P/2005 T5 (Broughton),e,21.3379,57.0207,304.6539,7.290796,0.0500659,0.54996699,197.7095,08/11.0/2016,2000,g 11.0,4.0
# From MPC 56954
P/2005 W3 (Kowalski),e,16.4662,210.4952,200.0999,6.338752,0.0617587,0.54276302,244.6905,08/11.0/2016,2000,g 12.0,4.0
# From MPC 75706
P/2005 XA54 (LONEOS-Hill),e,17.1418,143.7733,15.1109,6.050200,0.0662292,0.71103358,251.9833,08/11.0/2016,2000,g 14.0,4.0
# From MPC 75706
P/2005 Y2 (McNaught),e,19.1124,94.5405,194.4327,6.328748,0.0619052,0.46589981,264.9272,08/11.0/2016,2000,g  9.0,4.0
# From MPC 75707
P/2006 D1 (Hill),e,17.3711,359.9701,119.4448,5.565831,0.0750601,0.65980828,295.2660,08/11.0/2016,2000,g 16.0,4.0
# From MPC 75707
P/2006 F1 (Kowalski),e,21.2813,124.7480,186.0475,4.668418,0.0977124,0.11983513,303.3071,08/11.0/2016,2000,g  8.0,4.0
# From MPC 56954
P/2006 F4 (Spacewatch),e,12.3881,184.0463,31.0041,3.528961,0.1486736,0.33770770,198.4594,08/11.0/2016,2000,g 15.0,4.0
# From MPC 58118
P/2006 H1 (McNaught),e,12.8831,0.0622,309.9382,5.725752,0.0719375,0.58084689,272.5308,08/11.0/2016,2000,g 12.5,4.0
# From MPC 75707
P/2006 HR30 (Siding Spring),e,31.9101,309.6276,117.6117,7.807154,0.0451820,0.84216169,158.6222,08/11.0/2016,2000,g 11.0,4.0
# From MPC 73914
C/2006 K4 (NEAT),e,111.2867,116.6534,233.5926,1029,0.0000299,0.99689620,0.0000,11/24.8143/2007,2000,g  6.0,4.0
# From MPC 82313
C/2006 OF2 (Broughton),h,09/12.1429/2008,30.0835,318.3934,96.0225,1.002229,2.457899,2000,5.5,4.0
# From MPC 72849
C/2006 Q1 (McNaught),e,59.1555,199.3131,344.3760,1873,0.0000122,0.99852800,0.0000,07/04.7423/2008,2000,g  5.0,4.0
# From MPC 73461
P/2006 R1 (Siding Spring),e,160.0721,218.8351,249.3715,5.630667,0.0737674,0.70534873,268.4014,08/11.0/2016,2000,g 16.0,4.0
# From MPC 69905
P/2006 S1 (Christensen),e,12.2972,208.0880,133.8803,3.525762,0.1488760,0.60503538,186.1215,08/11.0/2016,2000,g 17.5,4.0
# From MPC 98557
C/2006 S3 (LONEOS),h,04/13.6324/2012,166.0239,38.3503,139.9993,1.000132,5.133581,2000,2.0,4.0
# From MPC 75707
P/2006 S4 (Christensen),e,39.5716,36.1238,305.7689,6.266970,0.0628229,0.50598961,234.9567,08/11.0/2016,2000,g 11.0,4.0
# From MPC 60465
C/2006 S5 (Hill),e,10.1385,281.3941,182.3583,98.31068,0.0010111,0.97310153,0.0000,12/08.5567/2007,2000,g  8.0,4.0
# From MPC 66204
C/2006 U6 (Spacewatch),e,84.7072,179.9716,276.6192,2582,0.0000075,0.99903001,0.0000,06/03.2853/2008,2000,g  8.0,4.0
# From MPC 62580
C/2006 V1 (Catalina),e,31.4575,335.5852,252.9308,154.1549,0.0005150,0.98283164,0.0000,11/26.3620/2007,2000,g  8.0,4.0
# From MPC 75707
P/2006 W1 (Gibbs),e,18.5261,152.7035,231.7133,5.803323,0.0705000,0.70532703,267.6458,08/11.0/2016,2000,g 12.0,4.0
# From MPC 82313
C/2006 W3 (Christensen),e,127.0832,113.5752,133.2910,7453,0.0000015,0.99958327,0.0000,07/07.1977/2009,2000,g  5.0,4.0
# From MPC 75707
P/2007 A2 (Christensen),e,26.5355,300.9790,186.9079,6.308249,0.0622072,0.55877727,216.9371,08/11.0/2016,2000,g 13.5,4.0
# From MPC 59319
P/2007 B1 (Christensen),e,12.3798,77.7164,46.8860,5.807444,0.0704249,0.58169802,245.3693,08/11.0/2016,2000,g 13.5,4.0
# From MPC 66700
C/2007 B2 (Skiff),e,27.6059,14.6894,206.0790,590.7499,0.0000686,0.99498647,0.0000,08/23.1572/2008,2000,g  6.0,4.0
# From MPC 75707
P/2007 C2 (Catalina),e,8.7093,275.8240,179.5549,7.023247,0.0529538,0.46350782,172.7218,08/11.0/2016,2000,g 10.0,4.0
# From MPC 84315
C/2007 D1 (LINEAR),e,41.4862,170.9495,340.2431,2646,0.0000072,0.99667066,0.0000,06/17.5808/2007,2000,g  3.5,4.0
# From MPC 66464
